#dP2022  7 13  0  0  0.00000000      97 __u+U IGS14 FIT  IAC
## 2218 259200.00000000   900.00000000 59773 0.0000000000000
+  116   C06C07C08C09C10C11C12C13C14C16C19C20C21C22C23C24C25
+        C26C27C28C29C30C32C33C34C35C36C37C38C39C40C41C42C43
+        C44C45C46E01E02E03E04E05E07E08E09E10E11E12E13E14E15
+        E18E19E21E24E25E26E27E30E31E33E34E36G01G02G03G04G05
+        G06G07G08G09G10G11G12G13G14G15G16G17G18G19G20G21G22
+        G23G24G25G26G27G28G29G30G31G32J02J03R01R02R03R04R05
+        R07R08R09R11R12R13R14R15R17R18R19R20R21R24  0  0  0
++         7  7  7  7  7  6  6  7  6  7  5  6  6  5  6  6  6
++         6  6  6  6  6  6  6  5  6  6  6  9  6  6  6  6  5
++         6  6  6  4  4  4  4  5  4  4  5  4  4  4  4  4  4
++         5  4  4  4  4  4  4  4  4  4  4  5  3  4  3  3  4
++         3  4  3  3  3  3  3  4  3  3  4  3  3  4  4  3  3
++         3  3  3  3  3  4  4  3  4  3  9 10  7  6  6  6  6
++         6  6  7  6  6  7  6  6  6  7  7  7  6  6  0  0  0
%c M  cc GPS ccc cccc cccc cccc cccc ccccc ccccc ccccc ccccc
%c cc cc ccc ccc cccc cccc cccc cccc ccccc ccccc ccccc ccccc
%f  1.2500000  1.025000000  0.00000000000  0.000000000000000
%f  0.0000000  0.000000000  0.00000000000  0.000000000000000
%i    0    0    0    0      0      0      0      0         0
%i    0    0    0    0      0      0      0      0         0
/* INFORMATION & ANALYSIS CENTER (IAC)            FINAL DATA
/* S/V CLOCKS ARE ALIGNED TO GNSS TIME                      
/* G:C1WC2W R:C1PC2P E:C1XC5X C:C2IC6I J:C1CC2S             
/* PCV:IGS14_2215 OL/AL:FES2004  NONE     YN ORB:CoN CLK:CoN
*  2022 07 13 16 30  0.00000000
PC06 -12391.495920  24026.460372  32315.145159    386.242900
PC07 -12248.740290  40314.787808  -3064.742375   -424.260079
PC08   2622.632603  31470.150487 -27844.437017    402.610948
PC09  -3845.459545  24606.299087  34359.487053   -928.999666
PC10  -7626.901812  40864.437591  -8223.110330    118.788021
PC11  25313.458515  -8290.143803   8318.015766    472.165453
PC12  26136.899580   2961.551733  -9261.446195   -577.959685
PC13   6249.295051  33787.271370 -24122.464622     22.913273
PC14  17374.654923 -16116.231590  14706.027765    539.845544
PC16 -14932.919408  23275.231347  31938.180724    143.022696
PC19 -13997.283276  23314.477229  -6298.361501   -201.884564
PC20 -17903.206952   8355.728330 -19709.342706   -963.925944
PC21  11240.721372  12749.321320  22152.883256   -670.617706
PC22  -1897.474782  25454.271759  11316.480810   -962.840316
PC23  -7276.630534 -23930.410623 -12361.436294   -944.835079
PC24  20342.658705   4420.326197 -18575.738792   -967.840924
PC25   8196.574144 -15008.260766 -22058.513558   -708.155401
PC26  20100.541408  18569.656011  -5382.750313    710.082197
PC27 -20945.451354  -8684.464070  16236.052393    753.639513
PC28  -2548.978224 -15690.161724  22933.870698     89.554287
PC29 -17824.478167  14271.142109 -16055.251822    581.179618
PC30 -27597.417696   3987.419638    833.514436    501.035785
PC32 -11316.081233 -12692.540937 -22109.988959   -972.695135
PC33  13925.024188 -23303.553106   6421.609220   -156.860647
PC34  27531.146732  -4619.592984    172.316064   -359.684172
PC35   1756.004030  15887.501008 -22887.121100    364.128786
PC36  -9019.921866  14354.356666  22195.925373   -973.617433
PC37 -19250.609717 -19767.587535   4259.986897   -916.545418
PC38  -4939.062569  27959.509571 -31091.065083      9.859396
PC39 -20777.554957  22874.650010  28611.282660     -0.059264
PC40 -18977.790823  37767.357207   -525.192114     -0.514561
PC41   2192.185850 -25608.222672 -10814.284820    -77.509476
PC42  17857.619904  -7107.318810  20266.078175   -953.886275
PC43  18522.218535 -14022.812079  15460.604325      2.712114
PC44  21124.743929   8164.985010 -16339.259124    722.849892
PC45   7577.545982  23936.104034  12170.570617    807.983769
PC46 -19781.662586  -2896.920664  19491.598034   -429.891837
PE01  11548.250187 -18065.251298 -20401.216458   -514.433763
PE02 -11469.078451  18215.185591  20316.667414    311.707425
PE03 -22104.371909  19545.555948   2459.468484   -578.610904
PE04   6869.206363 -22005.158166 -18556.522315  -1070.598031
PE05 -24649.616738   5523.826642 -15426.960344   -163.325491
PE07  12822.802521  11503.354135  24079.446164   -687.164463
PE08  -6692.339562  21910.110915  18756.241971   -562.989561
PE09 -12796.490611 -11319.148420 -24167.129290   -586.316366
PE10 -13968.328874 -18342.148476  18552.473165   -500.291068
PE11 -22678.424370 -16085.321992  10122.598307   3023.197382
PE12  -3409.107039 -17739.424918  23434.850437    -60.154597
PE13  22224.721465  16279.441669 -10836.226667    429.789871
PE14  13545.730105  14735.972724 -23402.808335  -1780.189876
PE15   3304.121397  17637.026052 -23544.456916    733.498549
PE18 -22652.072469  -1186.559928  13955.073871  -1218.523129
PE19  23309.818968 -18243.520413    -41.261260  -5104.051114
PE21  16927.173616   2065.315902 -24190.109327   -745.687711
PE24 -12439.353530 -23251.660300  13456.998394   -722.810381
PE25 -16950.874638  -2393.344717  24158.249521   -580.925688
PE26  27806.057701   4748.408772   8955.915780  -1372.631341
PE27  13005.843668  22364.057787 -14370.435906   -343.938208
PE30    729.903344  29214.712933   4670.944951   -669.256152
PE31  -1486.097035 -29317.146076  -3788.531040   -499.856500
PE33  17468.818013  -8582.008627  22297.552124   -454.740750
PE34 -17289.014800   8748.246496 -22394.095532   -485.663767
PE36 -27947.171201  -5369.687337  -8141.977520   -401.639842
PG01  22277.595702  14540.310031  -3098.932950    322.175417
PG02  -5458.169294 -17379.559941  19925.760859   -651.481318
PG03  12294.871230  15924.175234  17280.475660   -306.126458
PG04  16203.689272   6716.802999  19978.816860   -146.351846
PG05  -6278.620919 -25019.222511  -6180.254488    -88.998145
PG06   9940.614671 -11166.020627  22019.747784    383.344711
PG07  23898.587254   3837.424859 -11070.238718    319.410671
PG08   9286.377913  12050.453780 -21818.153288    -76.033814
PG09  22632.111060  -3453.250001  13429.820969   -319.415254
PG10 -11661.220592  15290.263124 -18039.590813   -490.463380
PG11  -3401.749930 -17806.542797  19413.990668    -10.831047
PG12  -9893.067155 -19115.112426  15368.456389   -245.829983
PG13   1586.561741 -16469.430620 -20893.490575    347.702654
PG14  13203.786865 -13645.038695 -18527.080777   -111.858601
PG15 -10964.718566 -11767.737736 -21563.655475    -45.729290
PG16   -381.464419  26277.899538  -1491.602766   -515.105491
PG17  22593.983530 -13913.264761   2122.842102    636.406068
PG18 -23485.259363  -3683.467950 -11984.428795    114.439687
PG19  18191.240285 -16291.914280   9899.428321    183.216948
PG20   -273.262445 -25865.405536   6542.296145    503.532115
PG21  18039.210071  16169.584584 -11033.655676    161.123199
PG22 -15299.647609  17831.367501  12631.474036    291.715623
PG23 -14699.586114   3976.182852 -21764.272991    -32.744505
PG24 -20997.820920 -15020.566488  -7406.951422    197.914846
PG25 -15048.107794  -5331.715064  20981.062257    348.712669
PG26  -4714.305785  24169.942200   9449.951189    217.998290
PG27  -4406.955252  18091.551287 -18999.505513    220.576311
PG28   9357.921419 -21737.950201 -11777.145743    334.037491
PG29 -22913.376644   1996.989599  13299.317594   -533.190419
PG30  18440.418289  -5317.593342 -18373.381328   -533.893288
PG31  -8144.725554  12961.704319  21578.310811   -185.595582
PG32 -20518.928202  16288.238348   3838.844568   -175.313235
PJ02 -27032.873741  24672.017806  25983.912100     -1.645748
PJ03 -30836.547526  18638.872303 -17337.182906     -0.120157
PR01  -6638.311677  -9906.957544 -22545.157390     11.424739
PR02 -15731.026226   8658.297288 -18044.665534    524.011990
PR03 -14726.869938  20596.889952  -2800.266052     60.144555
PR04  -5746.857235  20720.933162  13743.754529    150.510614
PR05   6457.173773   9549.228335  22764.448618     96.174082
PR07  14573.810238 -20856.439607   2172.470818     37.797200
PR08   5596.265446 -20752.563761 -13699.175011    -66.184295
PR09  13896.142831   3674.836276 -21070.715432     65.574430
PR11  -6715.393214 -22450.097808 -10043.338889     33.404413
PR12 -14691.173244 -19006.191373   8630.200291     19.276480
PR13 -14053.509074  -5161.455476  20642.292619    -24.571748
PR14  -4617.931565  13298.612939  21293.881226     24.900458
PR15   6947.295814  22761.892787   9216.346828     94.692271
PR17 -16291.506275   7462.237782 -18173.134400    543.167947
PR18   1233.739674  10506.447345 -23205.509930    123.395956
PR19  16841.477102   8966.209780 -16933.636444   -196.163920
PR20  25409.781935   1251.525209   2110.908353    -74.519946
PR21  14907.347392  -7813.602557  19146.947999   -317.105959
PR24 -25365.684885   -216.275190  -2769.387191    103.383030
EOF
